IDEFIX & ARIANE 42P R/B 
1 27422U 02021B   26015.35596318  .00000179  00000+0  84534-4 0  9990
2 27422  98.5818 314.6173 0011727 350.2266   9.8687 14.30979024236395
AQUA                    
1 27424U 02022A   26015.64967716  .00000624  00000+0  13471-3 0  9995
2 27424  98.4082 342.0879 0002031  77.4941  33.3914 14.61821794260984
CZ-4B R/B               
1 27432U 02024C   26015.60908336  .00000025  00000+0  35933-4 0  9998
2 27432  98.8948  69.2543 0050346 172.7108 304.8774 14.14535832221733
MIDORI II (ADEOS-II)    
1 27597U 02056A   26015.59925828  .00000200  00000+0  96579-4 0  9996
2 27597  98.7682 333.7421 0001738 117.1005 243.0354 14.29235359202715
H-2A R/B                
1 27601U 02056E   26015.53933676  .00000219  00000+0  91521-4 0  9998
2 27601  98.3110 337.9598 0069581 320.8652 154.0780 14.33711528206490
CZ-4B R/B               
1 28059U 03049C   26015.56895846  .00000297  00000+0  79741-4 0  9994
2 28059  98.6815   8.4165 0048932  34.9647 325.4745 14.54948538178878
CZ-2C R/B               
1 28222U 04012C   26015.16036693  .00030097  00000+0  39342-3 0  9993
2 28222  97.7367  75.6061 0017034 145.2492 214.9879 15.58428546195928
SL-16 R/B               
1 28353U 04021B   26015.35174038 -.00000042  00000+0  26881-5 0  9999
2 28353  71.0030 344.4264 0003039 143.3260 216.8071 14.14592722115295
CZ-4B R/B               
1 28415U 04035C   26015.62185989  .00004601  00000+0  16847-3 0  9993
2 28415  97.3575  50.5219 0033541 154.2817 206.0100 15.28000125171804
CZ-2C R/B               
1 28480U 04046B   26015.61596055  .00000113  00000+0  57660-4 0  9999
2 28480  98.2002 293.8924 0138637 312.2263  46.7222 14.26965843100933
ARIANE 5 R/B            
1 28499U 04049H   26015.40914588  .00000814  00000+0  96281-4 0  9994
2 28499  98.2545 181.9043 0084716 163.0152 197.3929 14.85120441137884
CZ-2D R/B               
1 28738U 05024B   26015.58557238  .00021140  00000+0  31080-3 0  9998
2 28738  97.3622  28.9748 0004366 188.4730 171.6452 15.55485847131516
