CCSDS_OMM_VERS = 2.0
CREATION_DATE  = 
ORIGINATOR     = 

OBJECT_NAME    = IDEFIX & ARIANE 42P R/B
OBJECT_ID      = 2002-021B
CENTER_NAME    = EARTH
REF_FRAME      = TEME
TIME_SYSTEM    = UTC
MEAN_ELEMENT_THEORY = SGP/SGP4

EPOCH          = 2026-01-15T08:32:35.218752
MEAN_MOTION    = 14.30979024
ECCENTRICITY   = .00117279
INCLINATION    = 98.5818
RA_OF_ASC_NODE = 314.6173
ARG_OF_PERICENTER = 350.2266
MEAN_ANOMALY   = 9.8687

EPHEMERIS_TYPE = 0
CLASSIFICATION_TYPE = U
NORAD_CAT_ID   = 27422
ELEMENT_SET_NO = 999
REV_AT_EPOCH   = 23639
BSTAR          = .84534362E-4
MEAN_MOTION_DOT = .179E-5
MEAN_MOTION_DDOT = 0

CCSDS_OMM_VERS = 2.0
CREATION_DATE  = 
ORIGINATOR     = 

OBJECT_NAME    = AQUA
OBJECT_ID      = 2002-022A
CENTER_NAME    = EARTH
REF_FRAME      = TEME
TIME_SYSTEM    = UTC
MEAN_ELEMENT_THEORY = SGP/SGP4

EPOCH          = 2026-01-15T15:35:32.106624
MEAN_MOTION    = 14.61821794
ECCENTRICITY   = .00020311
INCLINATION    = 98.4082
RA_OF_ASC_NODE = 342.0879
ARG_OF_PERICENTER = 77.4941
MEAN_ANOMALY   = 33.3914

EPHEMERIS_TYPE = 0
CLASSIFICATION_TYPE = U
NORAD_CAT_ID   = 27424
ELEMENT_SET_NO = 999
REV_AT_EPOCH   = 26098
BSTAR          = .13471229E-3
MEAN_MOTION_DOT = .624E-5
MEAN_MOTION_DDOT = 0

CCSDS_OMM_VERS = 2.0
CREATION_DATE  = 
ORIGINATOR     = 

OBJECT_NAME    = CZ-4B R/B
OBJECT_ID      = 2002-024C
CENTER_NAME    = EARTH
REF_FRAME      = TEME
TIME_SYSTEM    = UTC
MEAN_ELEMENT_THEORY = SGP/SGP4

EPOCH          = 2026-01-15T14:37:04.802304
MEAN_MOTION    = 14.14535832
ECCENTRICITY   = .00503461
INCLINATION    = 98.8948
RA_OF_ASC_NODE = 69.2543
ARG_OF_PERICENTER = 172.7108
MEAN_ANOMALY   = 304.8774

EPHEMERIS_TYPE = 0
CLASSIFICATION_TYPE = U
NORAD_CAT_ID   = 27432
ELEMENT_SET_NO = 999
REV_AT_EPOCH   = 22173
BSTAR          = .35932788E-4
MEAN_MOTION_DOT = .25E-6
MEAN_MOTION_DDOT = 0

CCSDS_OMM_VERS = 2.0
CREATION_DATE  = 
ORIGINATOR     = 

OBJECT_NAME    = MIDORI II (ADEOS-II)
OBJECT_ID      = 2002-056A
CENTER_NAME    = EARTH
REF_FRAME      = TEME
TIME_SYSTEM    = UTC
MEAN_ELEMENT_THEORY = SGP/SGP4

EPOCH          = 2026-01-15T14:22:55.915392
MEAN_MOTION    = 14.29235359
ECCENTRICITY   = .00017383
INCLINATION    = 98.7682
RA_OF_ASC_NODE = 333.7421
ARG_OF_PERICENTER = 117.1005
MEAN_ANOMALY   = 243.0354

EPHEMERIS_TYPE = 0
CLASSIFICATION_TYPE = U
NORAD_CAT_ID   = 27597
ELEMENT_SET_NO = 999
REV_AT_EPOCH   = 20271
BSTAR          = .96579313E-4
MEAN_MOTION_DOT = .2E-5
MEAN_MOTION_DDOT = 0

CCSDS_OMM_VERS = 2.0
CREATION_DATE  = 
ORIGINATOR     = 

OBJECT_NAME    = H-2A R/B
OBJECT_ID      = 2002-056E
CENTER_NAME    = EARTH
REF_FRAME      = TEME
TIME_SYSTEM    = UTC
MEAN_ELEMENT_THEORY = SGP/SGP4

EPOCH          = 2026-01-15T12:56:38.696064
MEAN_MOTION    = 14.33711528
ECCENTRICITY   = .00695814
INCLINATION    = 98.3110
RA_OF_ASC_NODE = 337.9598
ARG_OF_PERICENTER = 320.8652
MEAN_ANOMALY   = 154.0780

EPHEMERIS_TYPE = 0
CLASSIFICATION_TYPE = U
NORAD_CAT_ID   = 27601
ELEMENT_SET_NO = 999
REV_AT_EPOCH   = 20649
BSTAR          = .91521497E-4
MEAN_MOTION_DOT = .219E-5
MEAN_MOTION_DDOT = 0

CCSDS_OMM_VERS = 2.0
CREATION_DATE  = 
ORIGINATOR     = 

OBJECT_NAME    = CZ-4B R/B
OBJECT_ID      = 2003-049C
CENTER_NAME    = EARTH
REF_FRAME      = TEME
TIME_SYSTEM    = UTC
MEAN_ELEMENT_THEORY = SGP/SGP4

EPOCH          = 2026-01-15T13:39:18.010944
MEAN_MOTION    = 14.54948538
ECCENTRICITY   = .0048932
INCLINATION    = 98.6815
RA_OF_ASC_NODE = 8.4165
ARG_OF_PERICENTER = 34.9647
MEAN_ANOMALY   = 325.4745

EPHEMERIS_TYPE = 0
CLASSIFICATION_TYPE = U
NORAD_CAT_ID   = 28059
ELEMENT_SET_NO = 999
REV_AT_EPOCH   = 17887
BSTAR          = .79740838E-4
MEAN_MOTION_DOT = .297E-5
MEAN_MOTION_DDOT = 0

CCSDS_OMM_VERS = 2.0
CREATION_DATE  = 
ORIGINATOR     = 

OBJECT_NAME    = CZ-2C R/B
OBJECT_ID      = 2004-012C
CENTER_NAME    = EARTH
REF_FRAME      = TEME
TIME_SYSTEM    = UTC
MEAN_ELEMENT_THEORY = SGP/SGP4

EPOCH          = 2026-01-15T03:50:55.702752
MEAN_MOTION    = 15.58428546
ECCENTRICITY   = .00170343
INCLINATION    = 97.7367
RA_OF_ASC_NODE = 75.6061
ARG_OF_PERICENTER = 145.2492
MEAN_ANOMALY   = 214.9879

EPHEMERIS_TYPE = 0
CLASSIFICATION_TYPE = U
NORAD_CAT_ID   = 28222
ELEMENT_SET_NO = 999
REV_AT_EPOCH   = 19592
BSTAR          = .39342385E-3
MEAN_MOTION_DOT = .30097E-3
MEAN_MOTION_DDOT = 0

CCSDS_OMM_VERS = 2.0
CREATION_DATE  = 
ORIGINATOR     = 

OBJECT_NAME    = SL-16 R/B
OBJECT_ID      = 2004-021B
CENTER_NAME    = EARTH
REF_FRAME      = TEME
TIME_SYSTEM    = UTC
MEAN_ELEMENT_THEORY = SGP/SGP4

EPOCH          = 2026-01-15T08:26:30.368832
MEAN_MOTION    = 14.14592722
ECCENTRICITY   = .00030398
INCLINATION    = 71.0030
RA_OF_ASC_NODE = 344.4264
ARG_OF_PERICENTER = 143.3260
MEAN_ANOMALY   = 216.8071

EPHEMERIS_TYPE = 0
CLASSIFICATION_TYPE = U
NORAD_CAT_ID   = 28353
ELEMENT_SET_NO = 999
REV_AT_EPOCH   = 11529
BSTAR          = .2688055E-5
MEAN_MOTION_DOT = -.42E-6
MEAN_MOTION_DDOT = 0

CCSDS_OMM_VERS = 2.0
CREATION_DATE  = 
ORIGINATOR     = 

OBJECT_NAME    = CZ-4B R/B
OBJECT_ID      = 2004-035C
CENTER_NAME    = EARTH
REF_FRAME      = TEME
TIME_SYSTEM    = UTC
MEAN_ELEMENT_THEORY = SGP/SGP4

EPOCH          = 2026-01-15T14:55:28.694496
MEAN_MOTION    = 15.28000125
ECCENTRICITY   = .0033541
INCLINATION    = 97.3575
RA_OF_ASC_NODE = 50.5219
ARG_OF_PERICENTER = 154.2817
MEAN_ANOMALY   = 206.0100

EPHEMERIS_TYPE = 0
CLASSIFICATION_TYPE = U
NORAD_CAT_ID   = 28415
ELEMENT_SET_NO = 999
REV_AT_EPOCH   = 17180
BSTAR          = .16846647E-3
MEAN_MOTION_DOT = .4601E-4
MEAN_MOTION_DDOT = 0

CCSDS_OMM_VERS = 2.0
CREATION_DATE  = 
ORIGINATOR     = 

OBJECT_NAME    = CZ-2C R/B
OBJECT_ID      = 2004-046B
CENTER_NAME    = EARTH
REF_FRAME      = TEME
TIME_SYSTEM    = UTC
MEAN_ELEMENT_THEORY = SGP/SGP4

EPOCH          = 2026-01-15T14:46:58.991520
MEAN_MOTION    = 14.26965843
ECCENTRICITY   = .01386374
INCLINATION    = 98.2002
RA_OF_ASC_NODE = 293.8924
ARG_OF_PERICENTER = 312.2263
MEAN_ANOMALY   = 46.7222

EPHEMERIS_TYPE = 0
CLASSIFICATION_TYPE = U
NORAD_CAT_ID   = 28480
ELEMENT_SET_NO = 999
REV_AT_EPOCH   = 10093
BSTAR          = .57659853E-4
MEAN_MOTION_DOT = .113E-5
MEAN_MOTION_DDOT = 0

CCSDS_OMM_VERS = 2.0
CREATION_DATE  = 
ORIGINATOR     = 

OBJECT_NAME    = ARIANE 5 R/B
OBJECT_ID      = 2004-049H
CENTER_NAME    = EARTH
REF_FRAME      = TEME
TIME_SYSTEM    = UTC
MEAN_ELEMENT_THEORY = SGP/SGP4

EPOCH          = 2026-01-15T09:49:10.204032
MEAN_MOTION    = 14.85120441
ECCENTRICITY   = .00847163
INCLINATION    = 98.2545
RA_OF_ASC_NODE = 181.9043
ARG_OF_PERICENTER = 163.0152
MEAN_ANOMALY   = 197.3929

EPHEMERIS_TYPE = 0
CLASSIFICATION_TYPE = U
NORAD_CAT_ID   = 28499
ELEMENT_SET_NO = 999
REV_AT_EPOCH   = 13788
BSTAR          = .96281348E-4
MEAN_MOTION_DOT = .814E-5
MEAN_MOTION_DDOT = 0

CCSDS_OMM_VERS = 2.0
CREATION_DATE  = 
ORIGINATOR     = 

OBJECT_NAME    = CZ-2D R/B
OBJECT_ID      = 2005-024B
CENTER_NAME    = EARTH
REF_FRAME      = TEME
TIME_SYSTEM    = UTC
MEAN_ELEMENT_THEORY = SGP/SGP4

EPOCH          = 2026-01-15T14:03:13.453632
MEAN_MOTION    = 15.55485847
ECCENTRICITY   = .00043665
INCLINATION    = 97.3622
RA_OF_ASC_NODE = 28.9748
ARG_OF_PERICENTER = 188.4730
MEAN_ANOMALY   = 171.6452

EPHEMERIS_TYPE = 0
CLASSIFICATION_TYPE = U
NORAD_CAT_ID   = 28738
ELEMENT_SET_NO = 999
REV_AT_EPOCH   = 13151
BSTAR          = .31079723E-3
MEAN_MOTION_DOT = .2114E-3
MEAN_MOTION_DDOT = 0

